{
    "links": {
        "self": "http://www.neowsapp.com/rest/v1/neo/3840841?api_key=iIulBulltgU6a56xZRHN4H3l9WmuAYTsLGpBGhQ2"
    },
    "id": "3840841",
    "neo_reference_id": "3840841",
    "name": "(2019 GH3)",
    "designation": "2019 GH3",
    "nasa_jpl_url": "http://ssd.jpl.nasa.gov/sbdb.cgi?sstr=3840841",
    "absolute_magnitude_h": 23.5,
    "estimated_diameter": {
        "kilometers": {
            "estimated_diameter_min": 0.0530340723,
            "estimated_diameter_max": 0.1185877909
        },
        "meters": {
            "estimated_diameter_min": 53.0340723319,
            "estimated_diameter_max": 118.5877908577
        },
        "miles": {
            "estimated_diameter_min": 0.0329538346,
            "estimated_diameter_max": 0.0736870142
        },
        "feet": {
            "estimated_diameter_min": 173.9963058693,
            "estimated_diameter_max": 389.0675677576
        }
    },
    "is_potentially_hazardous_asteroid": false,
    "close_approach_data": [
        {
            "close_approach_date": "2019-03-10",
            "close_approach_date_full": "2019-Mar-10 21:42",
            "epoch_date_close_approach": 1552254120000,
            "relative_velocity": {
                "kilometers_per_second": "14.6072203527",
                "kilometers_per_hour": "52585.9932697531",
                "miles_per_hour": "32674.8912069752"
            },
            "miss_distance": {
                "astronomical": "0.0467994279",
                "lunar": "18.2049774531",
                "kilometers": "7001094.731058573",
                "miles": "4350278.5407833874"
            },
            "orbiting_body": "Earth"
        }
    ],
    "orbital_data": {
        "orbit_id": "2",
        "orbit_determination_date": "2019-04-14 11:03:41",
        "first_observation_date": "2019-04-04",
        "last_observation_date": "2019-04-13",
        "data_arc_in_days": 9,
        "observations_used": 12,
        "orbit_uncertainty": "8",
        "minimum_orbit_intersection": ".011737",
        "jupiter_tisserand_invariant": "4.300",
        "epoch_osculation": "2458578.5",
        "eccentricity": ".53284504635011",
        "semi_major_axis": "1.537446931706984",
        "inclination": "5.53550812550183",
        "ascending_node_longitude": "198.5113182833772",
        "orbital_period": "696.303579897778",
        "perihelion_distance": ".7182259501207419",
        "perihelion_argument": "252.1820391749269",
        "aphelion_distance": "2.356667913293227",
        "perihelion_time": "2458503.155899384454",
        "mean_anomaly": "38.95409560522225",
        "mean_motion": ".5170158683556537",
        "equinox": "J2000",
        "orbit_class": {
            "orbit_class_type": "APO",
            "orbit_class_description": "Near-Earth asteroid orbits which cross the Earth’s orbit similar to that of 1862 Apollo",
            "orbit_class_range": "a (semi-major axis) > 1.0 AU; q (perihelion) < 1.017 AU"
        }
    },
    "is_sentry_object": false
}